G90; absolute positioning
G21; units in mm
F1200.00000000; feedrate
G0 X543.22000000 Y171.41000000 Z5.00000000 A0.00000000 B0.00000000; travel move
G1 X543.22000000 Y465.60000000 Z5.00000000 A0.00000000 B0.00000000; cut move
G1 X944.89000000 Y465.60000000 Z5.00000000 A0.00000000 B0.00000000; cut move
G0 X944.89000000 Y171.41000000 Z5.00000000 A0.00000000 B0.00000000; travel move
G1 X944.89000000 Y465.60000000 Z5.00000000 A0.00000000 B0.00000000; cut move
G0 X135.04000000 Y838.33000000 Z5.00000000 A51.07030194 B0.00000000; travel move
G1 X169.05000000 Y838.33000000 Z5.00000000 A51.07030194 B0.00000000; cut move
G0 X135.04000000 Y856.19000000 Z5.00000000 A51.07030194 B0.00000000; travel move
G1 X169.05000000 Y856.19000000 Z5.00000000 A51.07030194 B0.00000000; cut move
G0 X135.04000000 Y838.33000000 Z5.00000000 A51.07030194 B0.00000000; travel move
G1 X135.04000000 Y856.19000000 Z5.00000000 A51.07030194 B0.00000000; cut move
G0 X169.05000000 Y838.33000000 Z5.00000000 A51.07030194 B0.00000000; travel move
G1 X169.05000000 Y856.19000000 Z5.00000000 A51.07030194 B0.00000000; cut move
G0 X203.07000000 Y838.33000000 Z5.00000000 A51.07030194 B0.00000000; travel move
G1 X237.08000000 Y838.33000000 Z5.00000000 A51.07030194 B0.00000000; cut move
G0 X203.07000000 Y856.19000000 Z5.00000000 A51.07030194 B0.00000000; travel move
G1 X237.08000000 Y856.19000000 Z5.00000000 A51.07030194 B0.00000000; cut move
G0 X203.07000000 Y838.33000000 Z5.00000000 A51.07030194 B0.00000000; travel move
G1 X203.07000000 Y856.19000000 Z5.00000000 A51.07030194 B0.00000000; cut move
G0 X237.08000000 Y838.33000000 Z5.00000000 A51.07030194 B0.00000000; travel move
G1 X237.08000000 Y856.19000000 Z5.00000000 A51.07030194 B0.00000000; cut move
G0 X271.10000000 Y838.33000000 Z5.00000000 A51.07030194 B0.00000000; travel move
G1 X305.11000000 Y838.33000000 Z5.00000000 A51.07030194 B0.00000000; cut move
G0 X271.10000000 Y856.19000000 Z5.00000000 A51.07030194 B0.00000000; travel move
G1 X305.11000000 Y856.19000000 Z5.00000000 A51.07030194 B0.00000000; cut move
G0 X271.10000000 Y838.33000000 Z5.00000000 A51.07030194 B0.00000000; travel move
G1 X271.10000000 Y856.19000000 Z5.00000000 A51.07030194 B0.00000000; cut move
G0 X305.11000000 Y838.33000000 Z5.00000000 A51.07030194 B0.00000000; travel move
G1 X305.11000000 Y856.19000000 Z5.00000000 A51.07030194 B0.00000000; cut move
G0 X339.13000000 Y838.33000000 Z5.00000000 A51.07030194 B0.00000000; travel move
G1 X373.14000000 Y838.33000000 Z5.00000000 A51.07030194 B0.00000000; cut move
G0 X339.13000000 Y856.19000000 Z5.00000000 A51.07030194 B0.00000000; travel move
G1 X373.14000000 Y856.19000000 Z5.00000000 A51.07030194 B0.00000000; cut move
G0 X339.13000000 Y838.33000000 Z5.00000000 A51.07030194 B0.00000000; travel move
G1 X339.13000000 Y856.19000000 Z5.00000000 A51.07030194 B0.00000000; cut move
G0 X373.14000000 Y838.33000000 Z5.00000000 A51.07030194 B0.00000000; travel move
G1 X373.14000000 Y856.19000000 Z5.00000000 A51.07030194 B0.00000000; cut move
G0 X407.16000000 Y838.33000000 Z5.00000000 A51.07030194 B0.00000000; travel move
G1 X441.18000000 Y838.33000000 Z5.00000000 A51.07030194 B0.00000000; cut move
G0 X407.16000000 Y856.19000000 Z5.00000000 A51.07030194 B0.00000000; travel move
G1 X441.18000000 Y856.19000000 Z5.00000000 A51.07030194 B0.00000000; cut move
G0 X407.16000000 Y838.33000000 Z5.00000000 A51.07030194 B0.00000000; travel move
G1 X407.16000000 Y856.19000000 Z5.00000000 A51.07030194 B0.00000000; cut move
G0 X441.18000000 Y838.33000000 Z5.00000000 A51.07030194 B0.00000000; travel move
G1 X441.18000000 Y856.19000000 Z5.00000000 A51.07030194 B0.00000000; cut move
G0 X475.19000000 Y838.33000000 Z5.00000000 A51.07030194 B0.00000000; travel move
G1 X509.21000000 Y838.33000000 Z5.00000000 A51.07030194 B0.00000000; cut move
G0 X475.19000000 Y856.19000000 Z5.00000000 A51.07030194 B0.00000000; travel move
G1 X509.21000000 Y856.19000000 Z5.00000000 A51.07030194 B0.00000000; cut move
G0 X475.19000000 Y838.33000000 Z5.00000000 A51.07030194 B0.00000000; travel move
G1 X475.19000000 Y856.19000000 Z5.00000000 A51.07030194 B0.00000000; cut move
G0 X509.21000000 Y838.33000000 Z5.00000000 A51.07030194 B0.00000000; travel move
G1 X509.21000000 Y856.19000000 Z5.00000000 A51.07030194 B0.00000000; cut move
G0 X135.04000000 Y465.60000000 Z5.00000000 A51.07030194 B0.00000000; travel move
G1 X169.05000000 Y465.60000000 Z5.00000000 A51.07030194 B0.00000000; cut move
G0 X135.04000000 Y483.46000000 Z5.00000000 A51.07030194 B0.00000000; travel move
G1 X169.05000000 Y483.46000000 Z5.00000000 A51.07030194 B0.00000000; cut move
G0 X135.04000000 Y465.60000000 Z5.00000000 A51.07030194 B0.00000000; travel move
G1 X135.04000000 Y483.46000000 Z5.00000000 A51.07030194 B0.00000000; cut move
G0 X169.05000000 Y465.60000000 Z5.00000000 A51.07030194 B0.00000000; travel move
G1 X169.05000000 Y483.46000000 Z5.00000000 A51.07030194 B0.00000000; cut move
G0 X203.07000000 Y465.60000000 Z5.00000000 A51.07030194 B0.00000000; travel move
G1 X237.08000000 Y465.60000000 Z5.00000000 A51.07030194 B0.00000000; cut move
G0 X203.07000000 Y483.46000000 Z5.00000000 A51.07030194 B0.00000000; travel move
G1 X237.08000000 Y483.46000000 Z5.00000000 A51.07030194 B0.00000000; cut move
G0 X203.07000000 Y465.60000000 Z5.00000000 A51.07030194 B0.00000000; travel move
G1 X203.07000000 Y483.46000000 Z5.00000000 A51.07030194 B0.00000000; cut move
G0 X237.08000000 Y465.60000000 Z5.00000000 A51.07030194 B0.00000000; travel move
G1 X237.08000000 Y483.46000000 Z5.00000000 A51.07030194 B0.00000000; cut move
G0 X271.10000000 Y465.60000000 Z5.00000000 A51.07030194 B0.00000000; travel move
G1 X305.11000000 Y465.60000000 Z5.00000000 A51.07030194 B0.00000000; cut move
G0 X271.10000000 Y483.46000000 Z5.00000000 A51.07030194 B0.00000000; travel move
G1 X305.11000000 Y483.46000000 Z5.00000000 A51.07030194 B0.00000000; cut move
G0 X271.10000000 Y465.60000000 Z5.00000000 A51.07030194 B0.00000000; travel move
G1 X271.10000000 Y483.46000000 Z5.00000000 A51.07030194 B0.00000000; cut move
G0 X305.11000000 Y465.60000000 Z5.00000000 A51.07030194 B0.00000000; travel move
G1 X305.11000000 Y483.46000000 Z5.00000000 A51.07030194 B0.00000000; cut move
G0 X339.13000000 Y465.60000000 Z5.00000000 A51.07030194 B0.00000000; travel move
G1 X373.14000000 Y465.60000000 Z5.00000000 A51.07030194 B0.00000000; cut move
G0 X339.13000000 Y483.46000000 Z5.00000000 A51.07030194 B0.00000000; travel move
G1 X373.14000000 Y483.46000000 Z5.00000000 A51.07030194 B0.00000000; cut move
G0 X339.13000000 Y465.60000000 Z5.00000000 A51.07030194 B0.00000000; travel move
G1 X339.13000000 Y483.46000000 Z5.00000000 A51.07030194 B0.00000000; cut move
G0 X373.14000000 Y465.60000000 Z5.00000000 A51.07030194 B0.00000000; travel move
G1 X373.14000000 Y483.46000000 Z5.00000000 A51.07030194 B0.00000000; cut move
G0 X407.16000000 Y465.60000000 Z5.00000000 A51.07030194 B0.00000000; travel move
G1 X441.18000000 Y465.60000000 Z5.00000000 A51.07030194 B0.00000000; cut move
G0 X407.16000000 Y483.46000000 Z5.00000000 A51.07030194 B0.00000000; travel move
G1 X441.18000000 Y483.46000000 Z5.00000000 A51.07030194 B0.00000000; cut move
G0 X407.16000000 Y465.60000000 Z5.00000000 A51.07030194 B0.00000000; travel move
G1 X407.16000000 Y483.46000000 Z5.00000000 A51.07030194 B0.00000000; cut move
G0 X441.18000000 Y465.60000000 Z5.00000000 A51.07030194 B0.00000000; travel move
G1 X441.18000000 Y483.46000000 Z5.00000000 A51.07030194 B0.00000000; cut move
G0 X475.19000000 Y465.60000000 Z5.00000000 A51.07030194 B0.00000000; travel move
G1 X509.21000000 Y465.60000000 Z5.00000000 A51.07030194 B0.00000000; cut move
G0 X475.19000000 Y483.46000000 Z5.00000000 A51.07030194 B0.00000000; travel move
G1 X509.21000000 Y483.46000000 Z5.00000000 A51.07030194 B0.00000000; cut move
G0 X475.19000000 Y465.60000000 Z5.00000000 A51.07030194 B0.00000000; travel move
G1 X475.19000000 Y483.46000000 Z5.00000000 A51.07030194 B0.00000000; cut move
G0 X509.21000000 Y465.60000000 Z5.00000000 A51.07030194 B0.00000000; travel move
G1 X509.21000000 Y483.46000000 Z5.00000000 A51.07030194 B0.00000000; cut move
G0 X591.55000000 Y157.79000000 Z5.00000000 A-51.07030194 B0.00000000; travel move
G1 X556.40000000 Y157.79000000 Z5.00000000 A-51.07030194 B0.00000000; cut move
G0 X659.59000000 Y157.79000000 Z5.00000000 A-51.07030194 B0.00000000; travel move
G1 X624.44000000 Y157.79000000 Z5.00000000 A-51.07030194 B0.00000000; cut move
G0 X727.62000000 Y157.79000000 Z5.00000000 A-51.07030194 B0.00000000; travel move
G1 X692.47000000 Y157.79000000 Z5.00000000 A-51.07030194 B0.00000000; cut move
G0 X795.65000000 Y157.79000000 Z5.00000000 A-51.07030194 B0.00000000; travel move
G1 X760.50000000 Y157.79000000 Z5.00000000 A-51.07030194 B0.00000000; cut move
G0 X863.68000000 Y157.79000000 Z5.00000000 A-51.07030194 B0.00000000; travel move
G1 X828.53000000 Y157.79000000 Z5.00000000 A-51.07030194 B0.00000000; cut move
G0 X931.71000000 Y157.79000000 Z5.00000000 A-51.07030194 B0.00000000; travel move
G1 X896.56000000 Y157.79000000 Z5.00000000 A-51.07030194 B0.00000000; cut move
G0 X556.40000000 Y157.79000000 Z5.00000000 A-51.07030194 B0.00000000; travel move
G1 X556.40000000 Y177.60000000 Z5.00000000 A-51.07030194 B0.00000000; cut move
G0 X591.55000000 Y157.79000000 Z5.00000000 A-51.07030194 B0.00000000; travel move
G1 X591.55000000 Y177.60000000 Z5.00000000 A-51.07030194 B0.00000000; cut move
G0 X624.44000000 Y157.79000000 Z5.00000000 A-51.07030194 B0.00000000; travel move
G1 X624.44000000 Y177.60000000 Z5.00000000 A-51.07030194 B0.00000000; cut move
G0 X659.59000000 Y157.79000000 Z5.00000000 A-51.07030194 B0.00000000; travel move
G1 X659.59000000 Y177.60000000 Z5.00000000 A-51.07030194 B0.00000000; cut move
G0 X692.47000000 Y157.79000000 Z5.00000000 A-51.07030194 B0.00000000; travel move
G1 X692.47000000 Y177.60000000 Z5.00000000 A-51.07030194 B0.00000000; cut move
G0 X727.62000000 Y157.79000000 Z5.00000000 A-51.07030194 B0.00000000; travel move
G1 X727.62000000 Y177.60000000 Z5.00000000 A-51.07030194 B0.00000000; cut move
G0 X760.50000000 Y157.79000000 Z5.00000000 A-51.07030194 B0.00000000; travel move
G1 X760.50000000 Y177.60000000 Z5.00000000 A-51.07030194 B0.00000000; cut move
G0 X795.65000000 Y157.79000000 Z5.00000000 A-51.07030194 B0.00000000; travel move
G1 X795.65000000 Y177.60000000 Z5.00000000 A-51.07030194 B0.00000000; cut move
G0 X828.53000000 Y157.79000000 Z5.00000000 A-51.07030194 B0.00000000; travel move
G1 X828.53000000 Y177.60000000 Z5.00000000 A-51.07030194 B0.00000000; cut move
G0 X863.68000000 Y157.79000000 Z5.00000000 A-51.07030194 B0.00000000; travel move
G1 X863.68000000 Y177.60000000 Z5.00000000 A-51.07030194 B0.00000000; cut move
G0 X896.56000000 Y157.79000000 Z5.00000000 A-51.07030194 B0.00000000; travel move
G1 X896.56000000 Y177.60000000 Z5.00000000 A-51.07030194 B0.00000000; cut move
G0 X931.71000000 Y157.79000000 Z5.00000000 A-51.07030194 B0.00000000; travel move
G1 X931.71000000 Y177.60000000 Z5.00000000 A-51.07030194 B0.00000000; cut move
G0 X591.55000000 Y177.60000000 Z5.00000000 A-51.07030194 B0.00000000; travel move
G1 X624.44000000 Y177.60000000 Z5.00000000 A-51.07030194 B0.00000000; cut move
G0 X659.59000000 Y177.60000000 Z5.00000000 A-51.07030194 B0.00000000; travel move
G1 X692.47000000 Y177.60000000 Z5.00000000 A-51.07030194 B0.00000000; cut move
G0 X727.62000000 Y177.60000000 Z5.00000000 A-51.07030194 B0.00000000; travel move
G1 X760.50000000 Y177.60000000 Z5.00000000 A-51.07030194 B0.00000000; cut move
G0 X795.65000000 Y177.60000000 Z5.00000000 A-51.07030194 B0.00000000; travel move
G1 X828.53000000 Y177.60000000 Z5.00000000 A-51.07030194 B0.00000000; cut move
G0 X863.68000000 Y177.60000000 Z5.00000000 A-51.07030194 B0.00000000; travel move
G1 X896.56000000 Y177.60000000 Z5.00000000 A-51.07030194 B0.00000000; cut move
G0 X556.40000000 Y177.60000000 Z5.00000000 A-51.07030194 B0.00000000; travel move
G1 X543.22000000 Y177.60000000 Z5.00000000 A-51.07030194 B0.00000000; cut move
G0 X944.89000000 Y177.60000000 Z5.00000000 A-51.07030194 B0.00000000; travel move
G1 X931.71000000 Y177.60000000 Z5.00000000 A-51.07030194 B0.00000000; cut move
G0 X944.89000000 Y759.79000000 Z5.00000000 A0.00000000 B0.00000000; travel move
G1 X944.89000000 Y465.60000000 Z5.00000000 A0.00000000 B0.00000000; cut move
G0 X543.22000000 Y759.79000000 Z5.00000000 A0.00000000 B0.00000000; travel move
G1 X543.22000000 Y465.60000000 Z5.00000000 A0.00000000 B0.00000000; cut move
G0 X896.56000000 Y773.41000000 Z5.00000000 A51.07030194 B0.00000000; travel move
G1 X931.71000000 Y773.41000000 Z5.00000000 A51.07030194 B0.00000000; cut move
G0 X828.53000000 Y773.41000000 Z5.00000000 A51.07030194 B0.00000000; travel move
G1 X863.68000000 Y773.41000000 Z5.00000000 A51.07030194 B0.00000000; cut move
G0 X760.50000000 Y773.41000000 Z5.00000000 A51.07030194 B0.00000000; travel move
G1 X795.65000000 Y773.41000000 Z5.00000000 A51.07030194 B0.00000000; cut move
G0 X692.47000000 Y773.41000000 Z5.00000000 A51.07030194 B0.00000000; travel move
G1 X727.62000000 Y773.41000000 Z5.00000000 A51.07030194 B0.00000000; cut move
G0 X624.44000000 Y773.41000000 Z5.00000000 A51.07030194 B0.00000000; travel move
G1 X659.59000000 Y773.41000000 Z5.00000000 A51.07030194 B0.00000000; cut move
G0 X556.40000000 Y773.41000000 Z5.00000000 A51.07030194 B0.00000000; travel move
G1 X591.55000000 Y773.41000000 Z5.00000000 A51.07030194 B0.00000000; cut move
G0 X931.71000000 Y773.41000000 Z5.00000000 A51.07030194 B0.00000000; travel move
G1 X931.71000000 Y753.60000000 Z5.00000000 A51.07030194 B0.00000000; cut move
G0 X896.56000000 Y773.41000000 Z5.00000000 A51.07030194 B0.00000000; travel move
G1 X896.56000000 Y753.60000000 Z5.00000000 A51.07030194 B0.00000000; cut move
G0 X863.68000000 Y773.41000000 Z5.00000000 A51.07030194 B0.00000000; travel move
G1 X863.68000000 Y753.60000000 Z5.00000000 A51.07030194 B0.00000000; cut move
G0 X828.53000000 Y773.41000000 Z5.00000000 A51.07030194 B0.00000000; travel move
G1 X828.53000000 Y753.60000000 Z5.00000000 A51.07030194 B0.00000000; cut move
G0 X795.65000000 Y773.41000000 Z5.00000000 A51.07030194 B0.00000000; travel move
G1 X795.65000000 Y753.60000000 Z5.00000000 A51.07030194 B0.00000000; cut move
G0 X760.50000000 Y773.41000000 Z5.00000000 A51.07030194 B0.00000000; travel move
G1 X760.50000000 Y753.60000000 Z5.00000000 A51.07030194 B0.00000000; cut move
G0 X727.62000000 Y773.41000000 Z5.00000000 A51.07030194 B0.00000000; travel move
G1 X727.62000000 Y753.60000000 Z5.00000000 A51.07030194 B0.00000000; cut move
G0 X692.47000000 Y773.41000000 Z5.00000000 A51.07030194 B0.00000000; travel move
G1 X692.47000000 Y753.60000000 Z5.00000000 A51.07030194 B0.00000000; cut move
G0 X659.59000000 Y773.41000000 Z5.00000000 A51.07030194 B0.00000000; travel move
G1 X659.59000000 Y753.60000000 Z5.00000000 A51.07030194 B0.00000000; cut move
G0 X624.44000000 Y773.41000000 Z5.00000000 A51.07030194 B0.00000000; travel move
G1 X624.44000000 Y753.60000000 Z5.00000000 A51.07030194 B0.00000000; cut move
G0 X591.55000000 Y773.41000000 Z5.00000000 A51.07030194 B0.00000000; travel move
G1 X591.55000000 Y753.60000000 Z5.00000000 A51.07030194 B0.00000000; cut move
G0 X556.40000000 Y773.41000000 Z5.00000000 A51.07030194 B0.00000000; travel move
G1 X556.40000000 Y753.60000000 Z5.00000000 A51.07030194 B0.00000000; cut move
G0 X896.56000000 Y753.60000000 Z5.00000000 A51.07030194 B0.00000000; travel move
G1 X863.68000000 Y753.60000000 Z5.00000000 A51.07030194 B0.00000000; cut move
G0 X828.53000000 Y753.60000000 Z5.00000000 A51.07030194 B0.00000000; travel move
G1 X795.65000000 Y753.60000000 Z5.00000000 A51.07030194 B0.00000000; cut move
G0 X760.50000000 Y753.60000000 Z5.00000000 A51.07030194 B0.00000000; travel move
G1 X727.62000000 Y753.60000000 Z5.00000000 A51.07030194 B0.00000000; cut move
G0 X692.47000000 Y753.60000000 Z5.00000000 A51.07030194 B0.00000000; travel move
G1 X659.59000000 Y753.60000000 Z5.00000000 A51.07030194 B0.00000000; cut move
G0 X624.44000000 Y753.60000000 Z5.00000000 A51.07030194 B0.00000000; travel move
G1 X591.55000000 Y753.60000000 Z5.00000000 A51.07030194 B0.00000000; cut move
G0 X931.71000000 Y753.60000000 Z5.00000000 A51.07030194 B0.00000000; travel move
G1 X944.89000000 Y753.60000000 Z5.00000000 A51.07030194 B0.00000000; cut move
G0 X543.22000000 Y753.60000000 Z5.00000000 A51.07030194 B0.00000000; travel move
G1 X556.40000000 Y753.60000000 Z5.00000000 A51.07030194 B0.00000000; cut move
G0 X124.12000000 Y135.46000000 Z5.00000000 A0.00000000 B0.00000000; travel move
G1 X124.12000000 Y958.40000000 Z5.00000000 A0.00000000 B0.00000000; cut move
G0 X520.12000000 Y135.46000000 Z5.00000000 A0.00000000 B0.00000000; travel move
G1 X124.12000000 Y135.46000000 Z5.00000000 A0.00000000 B0.00000000; cut move
G0 X520.12000000 Y958.40000000 Z5.00000000 A0.00000000 B0.00000000; travel move
G1 X520.12000000 Y135.46000000 Z5.00000000 A0.00000000 B0.00000000; cut move
G0 X124.12000000 Y958.40000000 Z5.00000000 A0.00000000 B0.00000000; travel move
G1 X520.12000000 Y958.40000000 Z5.00000000 A0.00000000 B0.00000000; cut move
M2; end
