G90
G21
F600
M8
G0 X92 Y236.6 Z5 A0 B-45
M4 S100
G1 X92.004 Y237.556 Z5 A0.522 B-44.999
G1 X92.017 Y238.512 Z5 A1.043 B-44.995
G1 X92.039 Y239.468 Z5 A1.565 B-44.989
G1 X92.07 Y240.424 Z5 A2.086 B-44.981
G1 X92.109 Y241.379 Z5 A2.606 B-44.97
G1 X92.157 Y242.334 Z5 A3.126 B-44.957
G1 X92.213 Y243.288 Z5 A3.645 B-44.942
G1 X92.278 Y244.242 Z5 A4.163 B-44.924
G1 X92.352 Y245.196 Z5 A4.68 B-44.904
G1 X92.435 Y246.148 Z5 A5.196 B-44.881
G1 X92.526 Y247.1 Z5 A5.711 B-44.856
G1 X92.626 Y248.051 Z5 A6.224 B-44.829
G1 X92.735 Y249.001 Z5 A6.736 B-44.799
G1 X92.852 Y249.95 Z5 A7.246 B-44.767
G1 X92.978 Y250.897 Z5 A7.754 B-44.732
G1 X93.112 Y251.844 Z5 A8.261 B-44.695
G1 X93.256 Y252.789 Z5 A8.765 B-44.655
G1 X93.407 Y253.734 Z5 A9.268 B-44.613
G1 X93.568 Y254.676 Z5 A9.768 B-44.569
G1 X93.737 Y255.617 Z5 A10.266 B-44.522
G1 X93.914 Y256.557 Z5 A10.762 B-44.473
G1 X94.1 Y257.495 Z5 A11.255 B-44.421
G1 X94.295 Y258.431 Z5 A11.745 B-44.367
G1 X94.498 Y259.365 Z5 A12.233 B-44.31
G1 X94.709 Y260.297 Z5 A12.718 B-44.251
G1 X94.929 Y261.228 Z5 A13.2 B-44.19
G1 X95.158 Y262.156 Z5 A13.679 B-44.125
G1 X95.395 Y263.083 Z5 A14.156 B-44.059
G1 X95.64 Y264.007 Z5 A14.629 B-43.989
G1 X95.894 Y264.929 Z5 A15.099 B-43.918
G1 X96.156 Y265.848 Z5 A15.565 B-43.843
G1 X96.426 Y266.765 Z5 A16.029 B-43.767
G1 X96.705 Y267.68 Z5 A16.489 B-43.687
G1 X96.992 Y268.592 Z5 A16.945 B-43.605
G1 X97.288 Y269.501 Z5 A17.398 B-43.52
G1 X97.592 Y270.408 Z5 A17.847 B-43.433
G1 X97.904 Y271.312 Z5 A18.293 B-43.343
G1 X98.224 Y272.212 Z5 A18.735 B-43.251
G1 X98.552 Y273.11 Z5 A19.174 B-43.155
G1 X98.889 Y274.005 Z5 A19.608 B-43.058
G1 X99.233 Y274.897 Z5 A20.039 B-42.957
G1 X99.586 Y275.786 Z5 A20.466 B-42.854
G1 X99.947 Y276.671 Z5 A20.888 B-42.748
G1 X100.316 Y277.553 Z5 A21.307 B-42.639
G1 X100.693 Y278.432 Z5 A21.722 B-42.527
G1 X101.078 Y279.307 Z5 A22.133 B-42.413
G1 X101.471 Y280.179 Z5 A22.54 B-42.296
G1 X101.871 Y281.047 Z5 A22.943 B-42.176
G1 X102.28 Y281.912 Z5 A23.342 B-42.053
G1 X102.697 Y282.772 Z5 A23.737 B-41.928
G1 X103.121 Y283.629 Z5 A24.127 B-41.799
G1 X103.553 Y284.482 Z5 A24.514 B-41.668
G1 X103.993 Y285.331 Z5 A24.896 B-41.534
G1 X104.441 Y286.176 Z5 A25.274 B-41.397
G1 X104.896 Y287.016 Z5 A25.648 B-41.257
G1 X105.359 Y287.853 Z5 A26.018 B-41.114
G1 X105.829 Y288.685 Z5 A26.384 B-40.968
G1 X106.307 Y289.513 Z5 A26.745 B-40.818
G1 X106.793 Y290.337 Z5 A27.103 B-40.666
G1 X107.286 Y291.156 Z5 A27.456 B-40.511
G1 X107.786 Y291.971 Z5 A27.805 B-40.353
G1 X108.294 Y292.781 Z5 A28.149 B-40.192
G1 X108.81 Y293.586 Z5 A28.49 B-40.027
G1 X109.332 Y294.387 Z5 A28.826 B-39.86
G1 X109.862 Y295.183 Z5 A29.159 B-39.689
G1 X110.399 Y295.974 Z5 A29.487 B-39.515
G1 X110.943 Y296.76 Z5 A29.811 B-39.338
G1 X111.495 Y297.541 Z5 A30.131 B-39.157
G1 X112.053 Y298.317 Z5 A30.446 B-38.973
G1 X112.619 Y299.088 Z5 A30.758 B-38.786
G1 X113.191 Y299.854 Z5 A31.066 B-38.596
G1 X113.771 Y300.615 Z5 A31.369 B-38.402
G1 X114.357 Y301.37 Z5 A31.669 B-38.205
G1 X114.95 Y302.12 Z5 A31.964 B-38.005
G1 X115.55 Y302.864 Z5 A32.256 B-37.801
G1 X116.157 Y303.603 Z5 A32.543 B-37.594
G1 X116.771 Y304.337 Z5 A32.826 B-37.383
G1 X117.391 Y305.064 Z5 A33.106 B-37.169
G1 X118.017 Y305.786 Z5 A33.382 B-36.951
G1 X118.651 Y306.503 Z5 A33.653 B-36.73
G1 X119.29 Y307.213 Z5 A33.921 B-36.505
G1 X119.937 Y307.918 Z5 A34.185 B-36.276
G1 X120.589 Y308.617 Z5 A34.445 B-36.044
G1 X121.248 Y309.31 Z5 A34.702 B-35.808
G1 X121.914 Y309.996 Z5 A34.954 B-35.569
G1 X122.585 Y310.677 Z5 A35.203 B-35.326
G1 X123.263 Y311.352 Z5 A35.448 B-35.079
G1 X123.946 Y312.02 Z5 A35.689 B-34.828
G1 X124.636 Y312.682 Z5 A35.927 B-34.574
G1 X125.332 Y313.338 Z5 A36.161 B-34.316
G1 X126.034 Y313.987 Z5 A36.391 B-34.054
G1 X126.741 Y314.63 Z5 A36.618 B-33.788
G1 X127.455 Y315.267 Z5 A36.841 B-33.518
G1 X128.174 Y315.897 Z5 A37.06 B-33.244
G1 X128.899 Y316.52 Z5 A37.276 B-32.967
G1 X129.629 Y317.137 Z5 A37.489 B-32.685
G1 X130.366 Y317.747 Z5 A37.698 B-32.4
G1 X131.107 Y318.351 Z5 A37.903 B-32.11
G1 X131.854 Y318.947 Z5 A38.106 B-31.817
G1 X132.607 Y319.537 Z5 A38.304 B-31.519
G1 X133.365 Y320.12 Z5 A38.5 B-31.218
G1 X134.128 Y320.696 Z5 A38.692 B-30.912
G1 X134.896 Y321.265 Z5 A38.88 B-30.603
G1 X135.67 Y321.827 Z5 A39.066 B-30.289
G1 X136.449 Y322.382 Z5 A39.248 B-29.971
G1 X137.232 Y322.93 Z5 A39.427 B-29.649
G1 X138.021 Y323.47 Z5 A39.602 B-29.323
G1 X138.814 Y324.004 Z5 A39.775 B-28.993
G1 X139.613 Y324.53 Z5 A39.944 B-28.659
G1 X140.416 Y325.049 Z5 A40.11 B-28.32
G1 X141.223 Y325.561 Z5 A40.273 B-27.977
G1 X142.036 Y326.065 Z5 A40.432 B-27.631
G1 X142.853 Y326.562 Z5 A40.589 B-27.28
G1 X143.674 Y327.051 Z5 A40.743 B-26.924
G1 X144.5 Y327.533 Z5 A40.893 B-26.565
G1 X145.33 Y328.007 Z5 A41.041 B-26.201
G1 X146.165 Y328.474 Z5 A41.186 B-25.834
G1 X147.003 Y328.933 Z5 A41.327 B-25.462
G1 X147.846 Y329.384 Z5 A41.466 B-25.086
G1 X148.693 Y329.828 Z5 A41.601 B-24.706
G1 X149.544 Y330.264 Z5 A41.734 B-24.321
G1 X150.399 Y330.692 Z5 A41.864 B-23.933
G1 X151.258 Y331.113 Z5 A41.991 B-23.54
G1 X152.12 Y331.525 Z5 A42.115 B-23.143
G1 X152.986 Y331.93 Z5 A42.236 B-22.742
G1 X153.856 Y332.327 Z5 A42.355 B-22.337
G1 X154.73 Y332.716 Z5 A42.471 B-21.928
G1 X155.607 Y333.097 Z5 A42.583 B-21.515
G1 X156.487 Y333.47 Z5 A42.694 B-21.098
G1 X157.371 Y333.834 Z5 A42.801 B-20.677
G1 X158.258 Y334.191 Z5 A42.906 B-20.253
G1 X159.148 Y334.54 Z5 A43.008 B-19.824
G1 X160.042 Y334.881 Z5 A43.107 B-19.391
G1 X160.938 Y335.213 Z5 A43.203 B-18.955
G1 X161.838 Y335.537 Z5 A43.297 B-18.515
G1 X162.74 Y335.853 Z5 A43.388 B-18.071
G1 X163.645 Y336.161 Z5 A43.477 B-17.623
G1 X164.553 Y336.461 Z5 A43.563 B-17.172
G1 X165.464 Y336.752 Z5 A43.646 B-16.717
G1 X166.377 Y337.035 Z5 A43.727 B-16.259
G1 X167.293 Y337.31 Z5 A43.805 B-15.797
G1 X168.211 Y337.576 Z5 A43.881 B-15.332
G1 X169.132 Y337.834 Z5 A43.954 B-14.864
G1 X170.055 Y338.084 Z5 A44.024 B-14.393
G1 X170.98 Y338.325 Z5 A44.092 B-13.918
G1 X171.908 Y338.558 Z5 A44.158 B-13.44
G1 X172.837 Y338.782 Z5 A44.221 B-12.959
G1 X173.768 Y338.998 Z5 A44.281 B-12.476
G1 X174.702 Y339.205 Z5 A44.339 B-11.989
G1 X175.637 Y339.404 Z5 A44.394 B-11.5
G1 X176.574 Y339.594 Z5 A44.447 B-11.008
G1 X177.513 Y339.776 Z5 A44.498 B-10.514
G1 X178.453 Y339.949 Z5 A44.546 B-10.017
G1 X179.395 Y340.114 Z5 A44.592 B-9.518
G1 X180.338 Y340.27 Z5 A44.635 B-9.017
G1 X181.283 Y340.417 Z5 A44.675 B-8.513
G1 X182.229 Y340.556 Z5 A44.714 B-8.008
G1 X183.176 Y340.686 Z5 A44.75 B-7.5
G1 X184.125 Y340.808 Z5 A44.783 B-6.991
G1 X185.074 Y340.921 Z5 A44.814 B-6.48
G1 X186.025 Y341.025 Z5 A44.843 B-5.967
G1 X186.976 Y341.12 Z5 A44.869 B-5.453
G1 X187.928 Y341.207 Z5 A44.893 B-4.938
G1 X188.881 Y341.286 Z5 A44.914 B-4.422
G1 X189.835 Y341.355 Z5 A44.933 B-3.904
G1 X190.789 Y341.416 Z5 A44.95 B-3.385
G1 X191.743 Y341.468 Z5 A44.964 B-2.866
G1 X192.699 Y341.512 Z5 A44.976 B-2.346
G1 X193.654 Y341.547 Z5 A44.985 B-1.825
G1 X194.61 Y341.573 Z5 A44.993 B-1.304
G1 X195.566 Y341.59 Z5 A44.997 B-0.783
G1 X196.522 Y341.599 Z5 A45 B-0.261
G1 X197.478 Y341.599 Z5 A45 B0.261
G1 X198.434 Y341.59 Z5 A44.997 B0.783
G1 X199.39 Y341.573 Z5 A44.993 B1.304
G1 X200.346 Y341.547 Z5 A44.985 B1.825
G1 X201.301 Y341.512 Z5 A44.976 B2.346
G1 X202.257 Y341.468 Z5 A44.964 B2.866
G1 X203.211 Y341.416 Z5 A44.95 B3.385
G1 X204.165 Y341.355 Z5 A44.933 B3.904
G1 X205.119 Y341.286 Z5 A44.914 B4.422
G1 X206.072 Y341.207 Z5 A44.893 B4.938
G1 X207.024 Y341.12 Z5 A44.869 B5.453
G1 X207.975 Y341.025 Z5 A44.843 B5.967
G1 X208.926 Y340.921 Z5 A44.814 B6.48
G1 X209.875 Y340.808 Z5 A44.783 B6.991
G1 X210.824 Y340.686 Z5 A44.75 B7.5
G1 X211.771 Y340.556 Z5 A44.714 B8.008
G1 X212.717 Y340.417 Z5 A44.675 B8.513
G1 X213.662 Y340.27 Z5 A44.635 B9.017
G1 X214.605 Y340.114 Z5 A44.592 B9.518
G1 X215.547 Y339.949 Z5 A44.546 B10.017
G1 X216.487 Y339.776 Z5 A44.498 B10.514
G1 X217.426 Y339.594 Z5 A44.447 B11.008
G1 X218.363 Y339.404 Z5 A44.394 B11.5
G1 X219.298 Y339.205 Z5 A44.339 B11.989
G1 X220.232 Y338.998 Z5 A44.281 B12.476
G1 X221.163 Y338.782 Z5 A44.221 B12.959
G1 X222.092 Y338.558 Z5 A44.158 B13.44
G1 X223.02 Y338.325 Z5 A44.092 B13.918
G1 X223.945 Y338.084 Z5 A44.024 B14.393
G1 X224.868 Y337.834 Z5 A43.954 B14.864
G1 X225.789 Y337.576 Z5 A43.881 B15.332
G1 X226.707 Y337.31 Z5 A43.805 B15.797
G1 X227.623 Y337.035 Z5 A43.727 B16.259
G1 X228.536 Y336.752 Z5 A43.646 B16.717
G1 X229.447 Y336.461 Z5 A43.563 B17.172
G1 X230.355 Y336.161 Z5 A43.477 B17.623
G1 X231.26 Y335.853 Z5 A43.388 B18.071
G1 X232.162 Y335.537 Z5 A43.297 B18.515
G1 X233.062 Y335.213 Z5 A43.203 B18.955
G1 X233.958 Y334.881 Z5 A43.107 B19.391
G1 X234.852 Y334.54 Z5 A43.008 B19.824
G1 X235.742 Y334.191 Z5 A42.906 B20.253
G1 X236.629 Y333.834 Z5 A42.801 B20.677
G1 X237.513 Y333.47 Z5 A42.694 B21.098
G1 X238.393 Y333.097 Z5 A42.583 B21.515
G1 X239.27 Y332.716 Z5 A42.471 B21.928
G1 X240.144 Y332.327 Z5 A42.355 B22.337
G1 X241.014 Y331.93 Z5 A42.236 B22.742
G1 X241.88 Y331.525 Z5 A42.115 B23.143
G1 X242.742 Y331.113 Z5 A41.991 B23.54
G1 X243.601 Y330.692 Z5 A41.864 B23.933
G1 X244.456 Y330.264 Z5 A41.734 B24.321
G1 X245.307 Y329.828 Z5 A41.601 B24.706
G1 X246.154 Y329.384 Z5 A41.466 B25.086
G1 X246.997 Y328.933 Z5 A41.327 B25.462
G1 X247.835 Y328.474 Z5 A41.186 B25.834
G1 X248.67 Y328.007 Z5 A41.041 B26.201
G1 X249.5 Y327.533 Z5 A40.893 B26.565
G1 X250.326 Y327.051 Z5 A40.743 B26.924
G1 X251.147 Y326.562 Z5 A40.589 B27.28
G1 X251.964 Y326.065 Z5 A40.432 B27.631
G1 X252.777 Y325.561 Z5 A40.273 B27.977
G1 X253.584 Y325.049 Z5 A40.11 B28.32
G1 X254.387 Y324.53 Z5 A39.944 B28.659
G1 X255.186 Y324.004 Z5 A39.775 B28.993
G1 X255.979 Y323.47 Z5 A39.602 B29.323
G1 X256.768 Y322.93 Z5 A39.427 B29.649
G1 X257.551 Y322.382 Z5 A39.248 B29.971
G1 X258.33 Y321.827 Z5 A39.066 B30.289
G1 X259.104 Y321.265 Z5 A38.88 B30.603
G1 X259.872 Y320.696 Z5 A38.692 B30.912
G1 X260.635 Y320.12 Z5 A38.5 B31.218
G1 X261.393 Y319.537 Z5 A38.304 B31.519
G1 X262.146 Y318.947 Z5 A38.106 B31.817
G1 X262.893 Y318.351 Z5 A37.903 B32.11
G1 X263.634 Y317.747 Z5 A37.698 B32.4
G1 X264.371 Y317.137 Z5 A37.489 B32.685
G1 X265.101 Y316.52 Z5 A37.276 B32.967
G1 X265.826 Y315.897 Z5 A37.06 B33.244
G1 X266.545 Y315.267 Z5 A36.841 B33.518
G1 X267.259 Y314.63 Z5 A36.618 B33.788
G1 X267.966 Y313.987 Z5 A36.391 B34.054
G1 X268.668 Y313.338 Z5 A36.161 B34.316
G1 X269.364 Y312.682 Z5 A35.927 B34.574
G1 X270.054 Y312.02 Z5 A35.689 B34.828
G1 X270.737 Y311.352 Z5 A35.448 B35.079
G1 X271.415 Y310.677 Z5 A35.203 B35.326
G1 X272.086 Y309.996 Z5 A34.954 B35.569
G1 X272.752 Y309.31 Z5 A34.702 B35.808
G1 X273.411 Y308.617 Z5 A34.445 B36.044
G1 X274.063 Y307.918 Z5 A34.185 B36.276
G1 X274.71 Y307.213 Z5 A33.921 B36.505
G1 X275.349 Y306.503 Z5 A33.653 B36.73
G1 X275.983 Y305.786 Z5 A33.382 B36.951
G1 X276.609 Y305.064 Z5 A33.106 B37.169
G1 X277.229 Y304.337 Z5 A32.826 B37.383
G1 X277.843 Y303.603 Z5 A32.543 B37.594
G1 X278.45 Y302.864 Z5 A32.256 B37.801
G1 X279.05 Y302.12 Z5 A31.964 B38.005
G1 X279.643 Y301.37 Z5 A31.669 B38.205
G1 X280.229 Y300.615 Z5 A31.369 B38.402
G1 X280.809 Y299.854 Z5 A31.066 B38.596
G1 X281.381 Y299.088 Z5 A30.758 B38.786
G1 X281.947 Y298.317 Z5 A30.446 B38.973
G1 X282.505 Y297.541 Z5 A30.131 B39.157
G1 X283.057 Y296.76 Z5 A29.811 B39.338
G1 X283.601 Y295.974 Z5 A29.487 B39.515
G1 X284.138 Y295.183 Z5 A29.159 B39.689
G1 X284.668 Y294.387 Z5 A28.826 B39.86
G1 X285.19 Y293.586 Z5 A28.49 B40.027
G1 X285.706 Y292.781 Z5 A28.149 B40.192
G1 X286.214 Y291.971 Z5 A27.805 B40.353
G1 X286.714 Y291.156 Z5 A27.456 B40.511
G1 X287.207 Y290.337 Z5 A27.103 B40.666
G1 X287.693 Y289.513 Z5 A26.745 B40.818
G1 X288.171 Y288.685 Z5 A26.384 B40.968
G1 X288.641 Y287.853 Z5 A26.018 B41.114
G1 X289.104 Y287.016 Z5 A25.648 B41.257
G1 X289.559 Y286.176 Z5 A25.274 B41.397
G1 X290.007 Y285.331 Z5 A24.896 B41.534
G1 X290.447 Y284.482 Z5 A24.514 B41.668
G1 X290.879 Y283.629 Z5 A24.127 B41.799
G1 X291.303 Y282.772 Z5 A23.737 B41.928
G1 X291.72 Y281.912 Z5 A23.342 B42.053
G1 X292.129 Y281.047 Z5 A22.943 B42.176
G1 X292.529 Y280.179 Z5 A22.54 B42.296
G1 X292.922 Y279.307 Z5 A22.133 B42.413
G1 X293.307 Y278.432 Z5 A21.722 B42.527
G1 X293.684 Y277.553 Z5 A21.307 B42.639
G1 X294.053 Y276.671 Z5 A20.888 B42.748
G1 X294.414 Y275.786 Z5 A20.466 B42.854
G1 X294.767 Y274.897 Z5 A20.039 B42.957
G1 X295.111 Y274.005 Z5 A19.608 B43.058
G1 X295.448 Y273.11 Z5 A19.174 B43.155
G1 X295.776 Y272.212 Z5 A18.735 B43.251
G1 X296.096 Y271.312 Z5 A18.293 B43.343
G1 X296.408 Y270.408 Z5 A17.847 B43.433
G1 X296.712 Y269.501 Z5 A17.398 B43.52
G1 X297.008 Y268.592 Z5 A16.945 B43.605
G1 X297.295 Y267.68 Z5 A16.489 B43.687
G1 X297.574 Y266.765 Z5 A16.029 B43.767
G1 X297.844 Y265.848 Z5 A15.565 B43.843
G1 X298.106 Y264.929 Z5 A15.099 B43.918
G1 X298.36 Y264.007 Z5 A14.629 B43.989
G1 X298.605 Y263.083 Z5 A14.156 B44.059
G1 X298.842 Y262.156 Z5 A13.679 B44.125
G1 X299.071 Y261.228 Z5 A13.2 B44.19
G1 X299.291 Y260.297 Z5 A12.718 B44.251
G1 X299.502 Y259.365 Z5 A12.233 B44.31
G1 X299.705 Y258.431 Z5 A11.745 B44.367
G1 X299.9 Y257.495 Z5 A11.255 B44.421
G1 X300.086 Y256.557 Z5 A10.762 B44.473
G1 X300.263 Y255.617 Z5 A10.266 B44.522
G1 X300.432 Y254.676 Z5 A9.768 B44.569
G1 X300.593 Y253.734 Z5 A9.268 B44.613
G1 X300.744 Y252.789 Z5 A8.765 B44.655
G1 X300.888 Y251.844 Z5 A8.261 B44.695
G1 X301.022 Y250.897 Z5 A7.754 B44.732
G1 X301.148 Y249.95 Z5 A7.246 B44.767
G1 X301.265 Y249.001 Z5 A6.736 B44.799
G1 X301.374 Y248.051 Z5 A6.224 B44.829
G1 X301.474 Y247.1 Z5 A5.711 B44.856
G1 X301.565 Y246.148 Z5 A5.196 B44.881
G1 X301.648 Y245.196 Z5 A4.68 B44.904
G1 X301.722 Y244.242 Z5 A4.163 B44.924
G1 X301.787 Y243.288 Z5 A3.645 B44.942
G1 X301.843 Y242.334 Z5 A3.126 B44.957
G1 X301.891 Y241.379 Z5 A2.606 B44.97
G1 X301.93 Y240.424 Z5 A2.086 B44.981
G1 X301.961 Y239.468 Z5 A1.565 B44.989
G1 X301.983 Y238.512 Z5 A1.043 B44.995
G1 X301.996 Y237.556 Z5 A0.522 B44.999
G1 X302 Y236.6 Z5 A0 B45
G1 X301.996 Y235.644 Z5 A-0.522 B44.999
G1 X301.983 Y234.688 Z5 A-1.043 B44.995
G1 X301.961 Y233.732 Z5 A-1.565 B44.989
G1 X301.93 Y232.776 Z5 A-2.086 B44.981
G1 X301.891 Y231.821 Z5 A-2.606 B44.97
G1 X301.843 Y230.866 Z5 A-3.126 B44.957
G1 X301.787 Y229.912 Z5 A-3.645 B44.942
G1 X301.722 Y228.958 Z5 A-4.163 B44.924
G1 X301.648 Y228.004 Z5 A-4.68 B44.904
G1 X301.565 Y227.052 Z5 A-5.196 B44.881
G1 X301.474 Y226.1 Z5 A-5.711 B44.856
G1 X301.374 Y225.149 Z5 A-6.224 B44.829
G1 X301.265 Y224.199 Z5 A-6.736 B44.799
G1 X301.148 Y223.25 Z5 A-7.246 B44.767
G1 X301.022 Y222.303 Z5 A-7.754 B44.732
G1 X300.888 Y221.356 Z5 A-8.261 B44.695
G1 X300.744 Y220.411 Z5 A-8.765 B44.655
G1 X300.593 Y219.466 Z5 A-9.268 B44.613
G1 X300.432 Y218.524 Z5 A-9.768 B44.569
G1 X300.263 Y217.583 Z5 A-10.266 B44.522
G1 X300.086 Y216.643 Z5 A-10.762 B44.473
G1 X299.9 Y215.705 Z5 A-11.255 B44.421
G1 X299.705 Y214.769 Z5 A-11.745 B44.367
G1 X299.502 Y213.835 Z5 A-12.233 B44.31
G1 X299.291 Y212.903 Z5 A-12.718 B44.251
G1 X299.071 Y211.972 Z5 A-13.2 B44.19
G1 X298.842 Y211.044 Z5 A-13.679 B44.125
G1 X298.605 Y210.117 Z5 A-14.156 B44.059
G1 X298.36 Y209.193 Z5 A-14.629 B43.989
G1 X298.106 Y208.271 Z5 A-15.099 B43.918
G1 X297.844 Y207.352 Z5 A-15.565 B43.843
G1 X297.574 Y206.435 Z5 A-16.029 B43.767
G1 X297.295 Y205.52 Z5 A-16.489 B43.687
G1 X297.008 Y204.608 Z5 A-16.945 B43.605
G1 X296.712 Y203.699 Z5 A-17.398 B43.52
G1 X296.408 Y202.792 Z5 A-17.847 B43.433
G1 X296.096 Y201.888 Z5 A-18.293 B43.343
G1 X295.776 Y200.988 Z5 A-18.735 B43.251
G1 X295.448 Y200.09 Z5 A-19.174 B43.155
G1 X295.111 Y199.195 Z5 A-19.608 B43.058
G1 X294.767 Y198.303 Z5 A-20.039 B42.957
G1 X294.414 Y197.414 Z5 A-20.466 B42.854
G1 X294.053 Y196.529 Z5 A-20.888 B42.748
G1 X293.684 Y195.647 Z5 A-21.307 B42.639
G1 X293.307 Y194.768 Z5 A-21.722 B42.527
G1 X292.922 Y193.893 Z5 A-22.133 B42.413
G1 X292.529 Y193.021 Z5 A-22.54 B42.296
G1 X292.129 Y192.153 Z5 A-22.943 B42.176
G1 X291.72 Y191.288 Z5 A-23.342 B42.053
G1 X291.303 Y190.428 Z5 A-23.737 B41.928
G1 X290.879 Y189.571 Z5 A-24.127 B41.799
G1 X290.447 Y188.718 Z5 A-24.514 B41.668
G1 X290.007 Y187.869 Z5 A-24.896 B41.534
G1 X289.559 Y187.024 Z5 A-25.274 B41.397
G1 X289.104 Y186.184 Z5 A-25.648 B41.257
G1 X288.641 Y185.347 Z5 A-26.018 B41.114
G1 X288.171 Y184.515 Z5 A-26.384 B40.968
G1 X287.693 Y183.687 Z5 A-26.745 B40.818
G1 X287.207 Y182.863 Z5 A-27.103 B40.666
G1 X286.714 Y182.044 Z5 A-27.456 B40.511
G1 X286.214 Y181.229 Z5 A-27.805 B40.353
G1 X285.706 Y180.419 Z5 A-28.149 B40.192
G1 X285.19 Y179.614 Z5 A-28.49 B40.027
G1 X284.668 Y178.813 Z5 A-28.826 B39.86
G1 X284.138 Y178.017 Z5 A-29.159 B39.689
G1 X283.601 Y177.226 Z5 A-29.487 B39.515
G1 X283.057 Y176.44 Z5 A-29.811 B39.338
G1 X282.505 Y175.659 Z5 A-30.131 B39.157
G1 X281.947 Y174.883 Z5 A-30.446 B38.973
G1 X281.381 Y174.112 Z5 A-30.758 B38.786
G1 X280.809 Y173.346 Z5 A-31.066 B38.596
G1 X280.229 Y172.585 Z5 A-31.369 B38.402
G1 X279.643 Y171.83 Z5 A-31.669 B38.205
G1 X279.05 Y171.08 Z5 A-31.964 B38.005
G1 X278.45 Y170.336 Z5 A-32.256 B37.801
G1 X277.843 Y169.597 Z5 A-32.543 B37.594
G1 X277.229 Y168.863 Z5 A-32.826 B37.383
G1 X276.609 Y168.136 Z5 A-33.106 B37.169
G1 X275.983 Y167.414 Z5 A-33.382 B36.951
G1 X275.349 Y166.697 Z5 A-33.653 B36.73
G1 X274.71 Y165.987 Z5 A-33.921 B36.505
G1 X274.063 Y165.282 Z5 A-34.185 B36.276
G1 X273.411 Y164.583 Z5 A-34.445 B36.044
G1 X272.752 Y163.89 Z5 A-34.702 B35.808
G1 X272.086 Y163.204 Z5 A-34.954 B35.569
G1 X271.415 Y162.523 Z5 A-35.203 B35.326
G1 X270.737 Y161.848 Z5 A-35.448 B35.079
G1 X270.054 Y161.18 Z5 A-35.689 B34.828
G1 X269.364 Y160.518 Z5 A-35.927 B34.574
G1 X268.668 Y159.862 Z5 A-36.161 B34.316
G1 X267.966 Y159.213 Z5 A-36.391 B34.054
G1 X267.259 Y158.57 Z5 A-36.618 B33.788
G1 X266.545 Y157.933 Z5 A-36.841 B33.518
G1 X265.826 Y157.303 Z5 A-37.06 B33.244
G1 X265.101 Y156.68 Z5 A-37.276 B32.967
G1 X264.371 Y156.063 Z5 A-37.489 B32.685
G1 X263.634 Y155.453 Z5 A-37.698 B32.4
G1 X262.893 Y154.849 Z5 A-37.903 B32.11
G1 X262.146 Y154.253 Z5 A-38.106 B31.817
G1 X261.393 Y153.663 Z5 A-38.304 B31.519
G1 X260.635 Y153.08 Z5 A-38.5 B31.218
G1 X259.872 Y152.504 Z5 A-38.692 B30.912
G1 X259.104 Y151.935 Z5 A-38.88 B30.603
G1 X258.33 Y151.373 Z5 A-39.066 B30.289
G1 X257.551 Y150.818 Z5 A-39.248 B29.971
G1 X256.768 Y150.27 Z5 A-39.427 B29.649
G1 X255.979 Y149.73 Z5 A-39.602 B29.323
G1 X255.186 Y149.196 Z5 A-39.775 B28.993
G1 X254.387 Y148.67 Z5 A-39.944 B28.659
G1 X253.584 Y148.151 Z5 A-40.11 B28.32
G1 X252.777 Y147.639 Z5 A-40.273 B27.977
G1 X251.964 Y147.135 Z5 A-40.432 B27.631
G1 X251.147 Y146.638 Z5 A-40.589 B27.28
G1 X250.326 Y146.149 Z5 A-40.743 B26.924
G1 X249.5 Y145.667 Z5 A-40.893 B26.565
G1 X248.67 Y145.193 Z5 A-41.041 B26.201
G1 X247.835 Y144.726 Z5 A-41.186 B25.834
G1 X246.997 Y144.267 Z5 A-41.327 B25.462
G1 X246.154 Y143.816 Z5 A-41.466 B25.086
G1 X245.307 Y143.372 Z5 A-41.601 B24.706
G1 X244.456 Y142.936 Z5 A-41.734 B24.321
G1 X243.601 Y142.508 Z5 A-41.864 B23.933
G1 X242.742 Y142.087 Z5 A-41.991 B23.54
G1 X241.88 Y141.675 Z5 A-42.115 B23.143
G1 X241.014 Y141.27 Z5 A-42.236 B22.742
G1 X240.144 Y140.873 Z5 A-42.355 B22.337
G1 X239.27 Y140.484 Z5 A-42.471 B21.928
G1 X238.393 Y140.103 Z5 A-42.583 B21.515
G1 X237.513 Y139.73 Z5 A-42.694 B21.098
G1 X236.629 Y139.366 Z5 A-42.801 B20.677
G1 X235.742 Y139.009 Z5 A-42.906 B20.253
G1 X234.852 Y138.66 Z5 A-43.008 B19.824
G1 X233.958 Y138.319 Z5 A-43.107 B19.391
G1 X233.062 Y137.987 Z5 A-43.203 B18.955
G1 X232.162 Y137.663 Z5 A-43.297 B18.515
G1 X231.26 Y137.347 Z5 A-43.388 B18.071
G1 X230.355 Y137.039 Z5 A-43.477 B17.623
G1 X229.447 Y136.739 Z5 A-43.563 B17.172
G1 X228.536 Y136.448 Z5 A-43.646 B16.717
G1 X227.623 Y136.165 Z5 A-43.727 B16.259
G1 X226.707 Y135.89 Z5 A-43.805 B15.797
G1 X225.789 Y135.624 Z5 A-43.881 B15.332
G1 X224.868 Y135.366 Z5 A-43.954 B14.864
G1 X223.945 Y135.116 Z5 A-44.024 B14.393
G1 X223.02 Y134.875 Z5 A-44.092 B13.918
G1 X222.092 Y134.642 Z5 A-44.158 B13.44
G1 X221.163 Y134.418 Z5 A-44.221 B12.959
G1 X220.232 Y134.202 Z5 A-44.281 B12.476
G1 X219.298 Y133.995 Z5 A-44.339 B11.989
G1 X218.363 Y133.796 Z5 A-44.394 B11.5
G1 X217.426 Y133.606 Z5 A-44.447 B11.008
G1 X216.487 Y133.424 Z5 A-44.498 B10.514
G1 X215.547 Y133.251 Z5 A-44.546 B10.017
G1 X214.605 Y133.086 Z5 A-44.592 B9.518
G1 X213.662 Y132.93 Z5 A-44.635 B9.017
G1 X212.717 Y132.783 Z5 A-44.675 B8.513
G1 X211.771 Y132.644 Z5 A-44.714 B8.008
G1 X210.824 Y132.514 Z5 A-44.75 B7.5
G1 X209.875 Y132.392 Z5 A-44.783 B6.991
G1 X208.926 Y132.279 Z5 A-44.814 B6.48
G1 X207.975 Y132.175 Z5 A-44.843 B5.967
G1 X207.024 Y132.08 Z5 A-44.869 B5.453
G1 X206.072 Y131.993 Z5 A-44.893 B4.938
G1 X205.119 Y131.914 Z5 A-44.914 B4.422
G1 X204.165 Y131.845 Z5 A-44.933 B3.904
G1 X203.211 Y131.784 Z5 A-44.95 B3.385
G1 X202.257 Y131.732 Z5 A-44.964 B2.866
G1 X201.301 Y131.688 Z5 A-44.976 B2.346
G1 X200.346 Y131.653 Z5 A-44.985 B1.825
G1 X199.39 Y131.627 Z5 A-44.993 B1.304
G1 X198.434 Y131.61 Z5 A-44.997 B0.783
G1 X197.478 Y131.601 Z5 A-45 B0.261
G1 X196.522 Y131.601 Z5 A-45 B-0.261
G1 X195.566 Y131.61 Z5 A-44.997 B-0.783
G1 X194.61 Y131.627 Z5 A-44.993 B-1.304
G1 X193.654 Y131.653 Z5 A-44.985 B-1.825
G1 X192.699 Y131.688 Z5 A-44.976 B-2.346
G1 X191.743 Y131.732 Z5 A-44.964 B-2.866
G1 X190.789 Y131.784 Z5 A-44.95 B-3.385
G1 X189.835 Y131.845 Z5 A-44.933 B-3.904
G1 X188.881 Y131.914 Z5 A-44.914 B-4.422
G1 X187.928 Y131.993 Z5 A-44.893 B-4.938
G1 X186.976 Y132.08 Z5 A-44.869 B-5.453
G1 X186.025 Y132.175 Z5 A-44.843 B-5.967
G1 X185.074 Y132.279 Z5 A-44.814 B-6.48
G1 X184.125 Y132.392 Z5 A-44.783 B-6.991
G1 X183.176 Y132.514 Z5 A-44.75 B-7.5
G1 X182.229 Y132.644 Z5 A-44.714 B-8.008
G1 X181.283 Y132.783 Z5 A-44.675 B-8.513
G1 X180.338 Y132.93 Z5 A-44.635 B-9.017
G1 X179.395 Y133.086 Z5 A-44.592 B-9.518
G1 X178.453 Y133.251 Z5 A-44.546 B-10.017
G1 X177.513 Y133.424 Z5 A-44.498 B-10.514
G1 X176.574 Y133.606 Z5 A-44.447 B-11.008
G1 X175.637 Y133.796 Z5 A-44.394 B-11.5
G1 X174.702 Y133.995 Z5 A-44.339 B-11.989
G1 X173.768 Y134.202 Z5 A-44.281 B-12.476
G1 X172.837 Y134.418 Z5 A-44.221 B-12.959
G1 X171.908 Y134.642 Z5 A-44.158 B-13.44
G1 X170.98 Y134.875 Z5 A-44.092 B-13.918
G1 X170.055 Y135.116 Z5 A-44.024 B-14.393
G1 X169.132 Y135.366 Z5 A-43.954 B-14.864
G1 X168.211 Y135.624 Z5 A-43.881 B-15.332
G1 X167.293 Y135.89 Z5 A-43.805 B-15.797
G1 X166.377 Y136.165 Z5 A-43.727 B-16.259
G1 X165.464 Y136.448 Z5 A-43.646 B-16.717
G1 X164.553 Y136.739 Z5 A-43.563 B-17.172
G1 X163.645 Y137.039 Z5 A-43.477 B-17.623
G1 X162.74 Y137.347 Z5 A-43.388 B-18.071
G1 X161.838 Y137.663 Z5 A-43.297 B-18.515
G1 X160.938 Y137.987 Z5 A-43.203 B-18.955
G1 X160.042 Y138.319 Z5 A-43.107 B-19.391
G1 X159.148 Y138.66 Z5 A-43.008 B-19.824
G1 X158.258 Y139.009 Z5 A-42.906 B-20.253
G1 X157.371 Y139.366 Z5 A-42.801 B-20.677
G1 X156.487 Y139.73 Z5 A-42.694 B-21.098
G1 X155.607 Y140.103 Z5 A-42.583 B-21.515
G1 X154.73 Y140.484 Z5 A-42.471 B-21.928
G1 X153.856 Y140.873 Z5 A-42.355 B-22.337
G1 X152.986 Y141.27 Z5 A-42.236 B-22.742
G1 X152.12 Y141.675 Z5 A-42.115 B-23.143
G1 X151.258 Y142.087 Z5 A-41.991 B-23.54
G1 X150.399 Y142.508 Z5 A-41.864 B-23.933
G1 X149.544 Y142.936 Z5 A-41.734 B-24.321
G1 X148.693 Y143.372 Z5 A-41.601 B-24.706
G1 X147.846 Y143.816 Z5 A-41.466 B-25.086
G1 X147.003 Y144.267 Z5 A-41.327 B-25.462
G1 X146.165 Y144.726 Z5 A-41.186 B-25.834
G1 X145.33 Y145.193 Z5 A-41.041 B-26.201
G1 X144.5 Y145.667 Z5 A-40.893 B-26.565
G1 X143.674 Y146.149 Z5 A-40.743 B-26.924
G1 X142.853 Y146.638 Z5 A-40.589 B-27.28
G1 X142.036 Y147.135 Z5 A-40.432 B-27.631
G1 X141.223 Y147.639 Z5 A-40.273 B-27.977
G1 X140.416 Y148.151 Z5 A-40.11 B-28.32
G1 X139.613 Y148.67 Z5 A-39.944 B-28.659
G1 X138.814 Y149.196 Z5 A-39.775 B-28.993
G1 X138.021 Y149.73 Z5 A-39.602 B-29.323
G1 X137.232 Y150.27 Z5 A-39.427 B-29.649
G1 X136.449 Y150.818 Z5 A-39.248 B-29.971
G1 X135.67 Y151.373 Z5 A-39.066 B-30.289
G1 X134.896 Y151.935 Z5 A-38.88 B-30.603
G1 X134.128 Y152.504 Z5 A-38.692 B-30.912
G1 X133.365 Y153.08 Z5 A-38.5 B-31.218
G1 X132.607 Y153.663 Z5 A-38.304 B-31.519
G1 X131.854 Y154.253 Z5 A-38.106 B-31.817
G1 X131.107 Y154.849 Z5 A-37.903 B-32.11
G1 X130.366 Y155.453 Z5 A-37.698 B-32.4
G1 X129.629 Y156.063 Z5 A-37.489 B-32.685
G1 X128.899 Y156.68 Z5 A-37.276 B-32.967
G1 X128.174 Y157.303 Z5 A-37.06 B-33.244
G1 X127.455 Y157.933 Z5 A-36.841 B-33.518
G1 X126.741 Y158.57 Z5 A-36.618 B-33.788
G1 X126.034 Y159.213 Z5 A-36.391 B-34.054
G1 X125.332 Y159.862 Z5 A-36.161 B-34.316
G1 X124.636 Y160.518 Z5 A-35.927 B-34.574
G1 X123.946 Y161.18 Z5 A-35.689 B-34.828
G1 X123.263 Y161.848 Z5 A-35.448 B-35.079
G1 X122.585 Y162.523 Z5 A-35.203 B-35.326
G1 X121.914 Y163.204 Z5 A-34.954 B-35.569
G1 X121.248 Y163.89 Z5 A-34.702 B-35.808
G1 X120.589 Y164.583 Z5 A-34.445 B-36.044
G1 X119.937 Y165.282 Z5 A-34.185 B-36.276
G1 X119.29 Y165.987 Z5 A-33.921 B-36.505
G1 X118.651 Y166.697 Z5 A-33.653 B-36.73
G1 X118.017 Y167.414 Z5 A-33.382 B-36.951
G1 X117.391 Y168.136 Z5 A-33.106 B-37.169
G1 X116.771 Y168.863 Z5 A-32.826 B-37.383
G1 X116.157 Y169.597 Z5 A-32.543 B-37.594
G1 X115.55 Y170.336 Z5 A-32.256 B-37.801
G1 X114.95 Y171.08 Z5 A-31.964 B-38.005
G1 X114.357 Y171.83 Z5 A-31.669 B-38.205
G1 X113.771 Y172.585 Z5 A-31.369 B-38.402
G1 X113.191 Y173.346 Z5 A-31.066 B-38.596
G1 X112.619 Y174.112 Z5 A-30.758 B-38.786
G1 X112.053 Y174.883 Z5 A-30.446 B-38.973
G1 X111.495 Y175.659 Z5 A-30.131 B-39.157
G1 X110.943 Y176.44 Z5 A-29.811 B-39.338
G1 X110.399 Y177.226 Z5 A-29.487 B-39.515
G1 X109.862 Y178.017 Z5 A-29.159 B-39.689
G1 X109.332 Y178.813 Z5 A-28.826 B-39.86
G1 X108.81 Y179.614 Z5 A-28.49 B-40.027
G1 X108.294 Y180.419 Z5 A-28.149 B-40.192
G1 X107.786 Y181.229 Z5 A-27.805 B-40.353
G1 X107.286 Y182.044 Z5 A-27.456 B-40.511
G1 X106.793 Y182.863 Z5 A-27.103 B-40.666
G1 X106.307 Y183.687 Z5 A-26.745 B-40.818
G1 X105.829 Y184.515 Z5 A-26.384 B-40.968
G1 X105.359 Y185.347 Z5 A-26.018 B-41.114
G1 X104.896 Y186.184 Z5 A-25.648 B-41.257
G1 X104.441 Y187.024 Z5 A-25.274 B-41.397
G1 X103.993 Y187.869 Z5 A-24.896 B-41.534
G1 X103.553 Y188.718 Z5 A-24.514 B-41.668
G1 X103.121 Y189.571 Z5 A-24.127 B-41.799
G1 X102.697 Y190.428 Z5 A-23.737 B-41.928
G1 X102.28 Y191.288 Z5 A-23.342 B-42.053
G1 X101.871 Y192.153 Z5 A-22.943 B-42.176
G1 X101.471 Y193.021 Z5 A-22.54 B-42.296
G1 X101.078 Y193.893 Z5 A-22.133 B-42.413
G1 X100.693 Y194.768 Z5 A-21.722 B-42.527
G1 X100.316 Y195.647 Z5 A-21.307 B-42.639
G1 X99.947 Y196.529 Z5 A-20.888 B-42.748
G1 X99.586 Y197.414 Z5 A-20.466 B-42.854
G1 X99.233 Y198.303 Z5 A-20.039 B-42.957
G1 X98.889 Y199.195 Z5 A-19.608 B-43.058
G1 X98.552 Y200.09 Z5 A-19.174 B-43.155
G1 X98.224 Y200.988 Z5 A-18.735 B-43.251
G1 X97.904 Y201.888 Z5 A-18.293 B-43.343
G1 X97.592 Y202.792 Z5 A-17.847 B-43.433
G1 X97.288 Y203.699 Z5 A-17.398 B-43.52
G1 X96.992 Y204.608 Z5 A-16.945 B-43.605
G1 X96.705 Y205.52 Z5 A-16.489 B-43.687
G1 X96.426 Y206.435 Z5 A-16.029 B-43.767
G1 X96.156 Y207.352 Z5 A-15.565 B-43.843
G1 X95.894 Y208.271 Z5 A-15.099 B-43.918
G1 X95.64 Y209.193 Z5 A-14.629 B-43.989
G1 X95.395 Y210.117 Z5 A-14.156 B-44.059
G1 X95.158 Y211.044 Z5 A-13.679 B-44.125
G1 X94.929 Y211.972 Z5 A-13.2 B-44.19
G1 X94.709 Y212.903 Z5 A-12.718 B-44.251
G1 X94.498 Y213.835 Z5 A-12.233 B-44.31
G1 X94.295 Y214.769 Z5 A-11.745 B-44.367
G1 X94.1 Y215.705 Z5 A-11.255 B-44.421
G1 X93.914 Y216.643 Z5 A-10.762 B-44.473
G1 X93.737 Y217.583 Z5 A-10.266 B-44.522
G1 X93.568 Y218.524 Z5 A-9.768 B-44.569
G1 X93.407 Y219.466 Z5 A-9.268 B-44.613
G1 X93.256 Y220.411 Z5 A-8.765 B-44.655
G1 X93.112 Y221.356 Z5 A-8.261 B-44.695
G1 X92.978 Y222.303 Z5 A-7.754 B-44.732
G1 X92.852 Y223.25 Z5 A-7.246 B-44.767
G1 X92.735 Y224.199 Z5 A-6.736 B-44.799
G1 X92.626 Y225.149 Z5 A-6.224 B-44.829
G1 X92.526 Y226.1 Z5 A-5.711 B-44.856
G1 X92.435 Y227.052 Z5 A-5.196 B-44.881
G1 X92.352 Y228.004 Z5 A-4.68 B-44.904
G1 X92.278 Y228.958 Z5 A-4.163 B-44.924
G1 X92.213 Y229.912 Z5 A-3.645 B-44.942
G1 X92.157 Y230.866 Z5 A-3.126 B-44.957
G1 X92.109 Y231.821 Z5 A-2.606 B-44.97
G1 X92.07 Y232.776 Z5 A-2.086 B-44.981
G1 X92.039 Y233.732 Z5 A-1.565 B-44.989
G1 X92.017 Y234.688 Z5 A-1.043 B-44.995
G1 X92.004 Y235.644 Z5 A-0.522 B-44.999
G1 X92 Y236.6 Z5 A0 B-45
M4 S0
M8.1
M2
